MEAN_MOTION;ECCENTRICITY;INCLINATION;RA_OF_ASC_NODE;ARG_OF_PERICENTER;MEAN_ANOMALY;BSTAR;MEAN_MOTION_DOT;MEAN_MOTION_DDOT;TYPE
14.34288008;0.0002203;86.4014;350.044;88.7203;271.4245;1.9288E-5;7.4E-7;0;Iridium
14.34288099;0.0002204;86.4014;349.8109;88.7735;271.3713;2.025E-5;7.7E-7;0;Iridium
14.34288099;0.0002204;86.4014;349.8109;88.7735;271.3713;2.025E-5;7.7E-7;0;Iridium
14.34288156;0.0002207;86.4014;349.607;88.9083;271.2366;1.9795E-5;7.5E-7;0;Iridium
14.34288301;0.0002214;86.4013;349.4031;88.975;271.17;2.3616E-5;8.6E-7;0;Iridium
14.34288343;0.0002222;86.4013;349.1701;88.8613;271.2837;2.2315E-5;8.2E-7;0;Iridium
14.34288435;0.0002222;86.4012;348.937;88.7784;271.3666;2.4431E-5;8.8E-7;0;Iridium
14.34288435;0.0002222;86.4012;348.937;88.7784;271.3666;2.4431E-5;8.8E-7;0;Iridium
14.34288485;0.0002223;86.4012;348.8205;88.7411;271.404;2.456E-5;8.9E-7;0;Iridium
14.34288533;0.0002221;86.4012;348.6457;88.6382;271.5069;2.5465E-5;9.1E-7;0;Iridium
14.34288605;0.000222;86.4011;348.4126;88.5107;271.6343;2.5584E-5;9.2E-7;0;Iridium
14.34288605;0.000222;86.4011;348.4126;88.5107;271.6343;2.5584E-5;9.2E-7;0;Iridium
14.34288798;0.0002218;86.4011;348.0047;88.3803;271.7647;2.9149E-5;1.02E-6;0;Iridium
14.34288922;0.0002216;86.401;347.8007;88.3465;271.7984;3.2288E-5;1.1E-6;0;Iridium
14.34288936;0.0002216;86.401;347.7715;88.3224;271.8226;3.2158E-5;1.1E-6;0;Iridium
14.34288897;0.0002226;86.401;347.5385;88.5568;271.5883;2.7736E-5;9.8E-7;0;Iridium
14.34288972;0.0002226;86.4009;347.2762;88.4196;271.7254;2.8622E-5;1.0E-6;0;Iridium
14.34288972;0.0002226;86.4009;347.2762;88.4196;271.7254;2.8622E-5;1.0E-6;0;Iridium
14.34289014;0.0002226;86.4009;347.1305;88.012;272.133;2.7423E-5;9.7E-7;0;Iridium
14.34289265;0.0002242;86.4007;346.6643;88.4077;271.7375;3.1768E-5;1.09E-6;0;Iridium
14.34289377;0.0002254;86.4006;346.3729;88.04;272.1054;3.1628E-5;1.08E-6;0;Iridium
14.34289386;0.0002256;86.4006;346.2855;87.9267;272.2187;2.8916E-5;1.01E-6;0;Iridium
14.34289513;0.0002259;86.4005;345.9941;87.7301;272.4153;3.0142E-5;1.04E-6;0;Iridium
14.34289506;0.0002259;86.4005;345.8484;87.7348;272.4107;2.3208E-5;8.5E-7;0;Iridium
14.34289553;0.0002259;86.4004;345.557;87.5958;272.5496;1.9389E-5;7.4E-7;0;Iridium
14.34289553;0.0002259;86.4004;345.557;87.5958;272.5496;1.9389E-5;7.4E-7;0;Iridium
14.34289603;0.0002259;86.4003;345.4113;87.6544;272.4911;1.9352E-5;7.4E-7;0;Iridium
14.34289687;0.0002256;86.4002;345.1491;87.4439;272.7015;1.9791E-5;7.5E-7;0;Iridium
14.34289744;0.0002256;86.4002;344.9742;87.4186;272.7268;1.9553E-5;7.5E-7;0;Iridium
14.34289807;0.0002256;86.4001;344.7119;87.2791;272.8664;1.825E-5;7.1E-7;0;Iridium
14.34289846;0.0002258;86.4001;344.5954;87.3488;272.7966;1.8887E-5;7.3E-7;0;Iridium
14.34289986;0.0002258;86.4;344.304;87.1489;272.9965;2.2995E-5;8.4E-7;0;Iridium
14.34290006;0.0002257;86.4;344.2748;87.1526;272.9928;2.3391E-5;8.5E-7;0;Iridium
14.34290036;0.0002259;86.4;344.1582;87.0882;273.0573;2.3245E-5;8.5E-7;0;Iridium
14.3429012;0.0002257;86.3999;343.8668;86.9863;273.1591;2.2733E-5;8.4E-7;0;Iridium
14.34290118;0.0002255;86.3999;343.7503;87.0543;273.0911;2.086E-5;7.8E-7;0;Iridium
14.34290118;0.0002255;86.3999;343.7503;87.0543;273.0911;2.086E-5;7.8E-7;0;Iridium
14.34290142;0.0002255;86.3998;343.3714;86.7991;273.3463;1.5501E-5;6.3E-7;0;Iridium
14.34290144;0.0002252;86.3998;343.2257;86.8645;273.2809;1.4595E-5;6.1E-7;0;Iridium
14.3429016;0.0002254;86.3997;343.0508;86.6965;273.4489;1.4441E-5;6.0E-7;0;Iridium
14.34290196;0.0002257;86.3997;342.9051;86.8896;273.2558;1.5258E-5;6.3E-7;0;Iridium
14.34290296;0.000226;86.3996;342.6427;86.6092;273.5362;1.9137E-5;7.3E-7;0;Iridium
14.34290342;0.0002258;86.3995;342.497;86.6264;273.519;1.9912E-5;7.6E-7;0;Iridium
14.34290545;0.0002259;86.3994;342.2055;86.563;273.5824;2.8398E-5;9.9E-7;0;Iridium
14.342906;0.0002257;86.3994;342.0598;86.6204;273.525;2.9167E-5;1.02E-6;0;Iridium
14.34290706;0.0002258;86.3993;341.7974;86.5327;273.6127;2.9913E-5;1.04E-6;0;Iridium
14.34290759;0.0002258;86.3992;341.6517;86.5743;273.5711;3.0018E-5;1.04E-6;0;Iridium
14.34290892;0.0002257;86.3991;341.3893;86.4574;273.688;3.3338E-5;1.13E-6;0;Iridium
14.34290905;0.0002256;86.399;341.3602;86.4308;273.7146;3.3127E-5;1.13E-6;0;Iridium
14.34290916;0.0002256;86.399;341.2435;86.5293;273.6161;3.0638E-5;1.06E-6;0;Iridium
14.34290983;0.0002252;86.3988;340.952;86.2742;273.8711;2.6973E-5;9.5E-7;0;Iridium
14.34291054;0.0002253;86.3988;340.8354;86.3757;273.7696;2.9106E-5;1.01E-6;0;Iridium
14.34291086;0.0002251;86.3988;340.748;86.3273;273.818;2.8534E-5;1.0E-6;0;Iridium
14.34291184;0.000225;86.3986;340.3981;86.2576;273.8877;2.6399E-5;9.4E-7;0;Iridium
14.34291238;0.0002248;86.3985;340.2815;86.1564;273.9889;2.5851E-5;9.2E-7;0;Iridium
14.34291294;0.000225;86.3985;340.1358;86.0363;274.109;2.6129E-5;9.3E-7;0;Iridium
14.34291389;0.000225;86.3984;339.9608;86.1027;274.0426;2.8471E-5;1.0E-6;0;Iridium
14.34291503;0.0002248;86.3983;339.7276;85.9045;274.2407;2.8539E-5;1.0E-6;0;Iridium
14.34291668;0.000224;86.3982;339.436;85.8889;274.2563;2.9914E-5;1.04E-6;0;Iridium
14.34291918;0.0002232;86.398;339.0278;85.8163;274.3288;3.2048E-5;1.1E-6;0;Iridium
14.3429203;0.0002232;86.3979;338.7945;85.8079;274.3372;3.2269E-5;1.1E-6;0;Iridium
14.34292141;0.0002227;86.3977;338.4154;85.7113;274.4337;2.8962E-5;1.01E-6;0;Iridium
14.34292139;0.0002228;86.3977;338.3862;85.7382;274.4068;2.8173E-5;9.9E-7;0;Iridium
14.34292241;0.0002222;86.3976;337.9779;85.7001;274.4449;2.6082E-5;9.3E-7;0;Iridium
14.34292313;0.0002218;86.3974;337.5696;85.8811;274.2638;2.4012E-5;8.7E-7;0;Iridium
14.34292321;0.0002218;86.3974;337.5404;85.8936;274.2514;2.4178E-5;8.8E-7;0;Iridium
14.34292398;0.0002215;86.3973;337.3654;85.8722;274.2727;2.5973E-5;9.3E-7;0;Iridium
14.3429246;0.0002219;86.3973;337.132;86.0941;274.0508;2.5585E-5;9.2E-7;0;Iridium
14.34292555;0.0002215;86.3971;336.782;85.5053;274.6396;2.5958E-5;9.3E-7;0;Iridium
14.34292555;0.0002215;86.3971;336.782;85.5053;274.6396;2.5958E-5;9.3E-7;0;Iridium
14.34292549;0.0002224;86.3971;336.7237;86.0048;274.1402;2.4307E-5;8.8E-7;0;Iridium
14.34292736;0.0002216;86.3969;336.3154;86.2466;273.8984;2.7493E-5;9.7E-7;0;Iridium
14.34292976;0.0002206;86.3968;335.8778;85.9542;274.1906;3.1722E-5;1.09E-6;0;Iridium
14.34293121;0.0002198;86.3966;335.5277;85.6815;274.4632;3.1879E-5;1.09E-6;0;Iridium
14.34293147;0.00022;86.3966;335.4693;85.7153;274.4294;3.1445E-5;1.08E-6;0;Iridium
14.34293271;0.0002197;86.3964;335.0901;85.6006;274.5441;2.922E-5;1.02E-6;0;Iridium
14.34293277;0.0002197;86.3964;335.061;85.6203;274.5244;2.8669E-5;1.0E-6;0;Iridium
14.34293404;0.000219;86.3963;334.6526;85.442;274.7026;2.5567E-5;9.1E-7;0;Iridium
14.34293415;0.0002189;86.3963;334.6234;85.44;274.7045;2.5585E-5;9.2E-7;0;Iridium
14.34293566;0.0002182;86.3961;334.2149;85.3958;274.7487;2.3668E-5;8.6E-7;0;Iridium
14.34293676;0.0002174;86.3959;333.8356;85.2862;274.8582;2.1367E-5;8.0E-7;0;Iridium
14.34293676;0.0002174;86.3959;333.8356;85.2862;274.8582;2.1367E-5;8.0E-7;0;Iridium
14.3429368;0.0002175;86.3959;333.8064;85.3168;274.8276;2.0974E-5;7.9E-7;0;Iridium
14.34293778;0.0002171;86.3959;333.6022;85.3935;274.7508;2.2126E-5;8.2E-7;0;Iridium
14.34293867;0.0002158;86.3957;333.1937;85.3406;274.8036;2.0397E-5;7.7E-7;0;Iridium
14.3429389;0.0002161;86.3957;333.0185;85.4348;274.7095;1.9218E-5;7.4E-7;0;Iridium
14.34293887;0.0002164;86.3957;332.9602;85.5284;274.6159;1.8278E-5;7.1E-7;0;Iridium
14.34293923;0.0002165;86.3956;332.5517;85.8599;274.2845;1.5781E-5;6.4E-7;0;Iridium
14.34293923;0.0002165;86.3956;332.5517;85.8599;274.2845;1.5781E-5;6.4E-7;0;Iridium
14.34294;0.0002163;86.3955;332.1724;85.7313;274.413;1.6383E-5;6.6E-7;0;Iridium
14.3429401;0.000216;86.3955;332.114;85.5142;274.6301;1.6345E-5;6.6E-7;0;Iridium
14.3429419;0.0002157;86.3954;331.7346;85.5842;274.56;2.1517E-5;8.0E-7;0;Iridium
14.34294387;0.0002146;86.3952;331.2968;85.576;274.5681;2.6082E-5;9.3E-7;0;Iridium
14.34294448;0.0002142;86.3952;331.1801;85.5192;274.6249;2.8819E-5;1.01E-6;0;Iridium
14.34294612;0.0002142;86.3951;330.9174;85.3967;274.7474;3.1506E-5;1.08E-6;0;Iridium
14.34294761;0.0002136;86.3949;330.5088;85.4898;274.6541;3.1866E-5;1.09E-6;0;Iridium
14.34294758;0.0002137;86.3949;330.4796;85.5495;274.5945;3.1026E-5;1.07E-6;0;Iridium
14.34294885;0.0002127;86.3948;330.1002;85.5606;274.5832;3.0709E-5;1.06E-6;0;Iridium
14.3429487;0.000213;86.3948;330.071;85.8015;274.3424;2.9146E-5;1.02E-6;0;Iridium
14.34294886;0.0002126;86.3947;329.925;85.7509;274.393;2.8087E-5;9.9E-7;0;Iridium
14.34294952;0.0002127;86.3946;329.6623;85.8906;274.2533;2.5515E-5;9.1E-7;0;Iridium
14.34294978;0.0002122;86.3946;329.5164;85.9557;274.1881;2.512E-5;9.0E-7;0;Iridium
14.34295051;0.0002123;86.3944;329.2536;85.8148;274.3291;2.2672E-5;8.3E-7;0;Iridium
14.34295045;0.0002122;86.3944;329.2244;85.9058;274.238;2.1492E-5;8.0E-7;0;Iridium
14.34295045;0.0002122;86.3944;329.2244;85.9058;274.238;2.1492E-5;8.0E-7;0;Iridium
14.34295194;0.000212;86.3943;328.8157;86.2287;273.9151;2.0891E-5;7.8E-7;0;Iridium
14.3429526;0.0002121;86.3943;328.6698;86.448;273.6959;2.229E-5;8.2E-7;0;Iridium
14.34295377;0.0002117;86.3942;328.407;86.4837;273.6601;2.1676E-5;8.1E-7;0;Iridium
14.34295424;0.0002114;86.3942;328.261;86.5395;273.6043;2.2306E-5;8.2E-7;0;Iridium
14.34295531;0.0002115;86.3941;327.9983;86.4955;273.6482;2.1395E-5;8.0E-7;0;Iridium
14.3429557;0.0002112;86.3941;327.8523;86.4948;273.6489;2.1832E-5;8.1E-7;0;Iridium
14.34295624;0.000211;86.3941;327.5604;86.6902;273.4535;1.8281E-5;7.1E-7;0;Iridium
14.34295725;0.0002104;86.3941;327.1517;86.7665;273.3772;1.7944E-5;7.0E-7;0;Iridium
14.3429573;0.0002103;86.3941;327.1225;86.7823;273.3614;1.8E-5;7.0E-7;0;Iridium
14.34295881;0.0002101;86.394;326.743;86.9976;273.146;2.045E-5;7.7E-7;0;Iridium
14.3429591;0.0002098;86.394;326.597;87.046;273.0975;2.152E-5;8.0E-7;0;Iridium
14.34296066;0.0002096;86.3939;326.305;87.006;273.1375;2.4531E-5;8.9E-7;0;Iridium
14.34296064;0.0002097;86.3939;326.2758;87.0308;273.1127;2.4401E-5;8.8E-7;0;Iridium
14.34296271;0.0002092;86.3939;325.8962;87.2269;272.9166;3.0089E-5;1.04E-6;0;Iridium
14.34296292;0.0002088;86.3939;325.7503;87.2866;272.8569;2.9704E-5;1.03E-6;0;Iridium
